{
  "type": "FeatureCollection",
  "features": [
    {
      "type": "Feature",
      "properties": {
        "norad_id": 37238,
        "name": "INTELSAT 17 (IS-17)",
        "group": "intelsat",
        "lat": -0.015066226141780615,
        "lon": -142.73384026661637,
        "alt_km": 35781.214976780604,
        "timestamp": "2025-12-24T03:53:29.310148+00:00",
        "meta_object_name": "INTELSAT 17 (IS-17)",
        "meta_object_id": "2010-065B",
        "meta_epoch": "2025-12-23T20:08:10.769856",
        "meta_mean_motion": 1.00271482,
        "meta_eccentricity": 0.0002671,
        "meta_inclination": 0.0047,
        "meta_ra_of_asc_node": 324.7466,
        "meta_arg_of_pericenter": 316.6869,
        "meta_mean_anomaly": 179.2214,
        "meta_ephemeris_type": 0,
        "meta_classification_type": "U",
        "meta_norad_cat_id": 37238,
        "meta_element_set_no": 999,
        "meta_rev_at_epoch": 5149,
        "meta_bstar": 0,
        "meta_mean_motion_dot": 2e-07,
        "meta_mean_motion_ddot": 0,
        "tle_line1": "1 37238U 10065B   25357.83901354  .00000020  00000+0  00000+0 0  9990",
        "tle_line2": "2 37238   0.0047 324.7466 0002671 316.6869 179.2214  1.00271482 51493"
      },
      "geometry": {
        "type": "Point",
        "coordinates": [
          -142.73384026661637,
          -0.015066226141780615
        ]
      }
    },
    {
      "type": "Feature",
      "properties": {
        "norad_id": 37392,
        "name": "INTELSAT 28 (IS-28)",
        "group": "intelsat",
        "lat": 0.7905679718912905,
        "lon": 119.5718867828027,
        "alt_km": 35799.59860139445,
        "timestamp": "2025-12-24T03:53:29.310160+00:00",
        "meta_object_name": "INTELSAT 28 (IS-28)",
        "meta_object_id": "2011-016A",
        "meta_epoch": "2025-12-23T18:07:00.645312",
        "meta_mean_motion": 1.00272195,
        "meta_eccentricity": 0.0003691,
        "meta_inclination": 1.3513,
        "meta_ra_of_asc_node": 84.936,
        "meta_arg_of_pericenter": 185.7974,
        "meta_mean_anomaly": 61.8505,
        "meta_ephemeris_type": 0,
        "meta_classification_type": "U",
        "meta_norad_cat_id": 37392,
        "meta_element_set_no": 999,
        "meta_rev_at_epoch": 5152,
        "meta_bstar": 0,
        "meta_mean_motion_dot": -2.04e-06,
        "meta_mean_motion_ddot": 0,
        "tle_line1": "1 37392U 11016A   25357.75486858 -.00000204  00000+0  00000+0 0  9991",
        "tle_line2": "2 37392   1.3513  84.9360 0003691 185.7974  61.8505  1.00272195 51524"
      },
      "geometry": {
        "type": "Point",
        "coordinates": [
          119.5718867828027,
          0.7905679718912905
        ]
      }
    },
    {
      "type": "Feature",
      "properties": {
        "norad_id": 37834,
        "name": "INTELSAT 18 (IS-18)",
        "group": "intelsat",
        "lat": 0.0029168111480680184,
        "lon": -28.682715986587862,
        "alt_km": 35780.692810607725,
        "timestamp": "2025-12-24T03:53:29.310172+00:00",
        "meta_object_name": "INTELSAT 18 (IS-18)",
        "meta_object_id": "2011-056A",
        "meta_epoch": "2025-12-23T17:24:42.196032",
        "meta_mean_motion": 1.00271479,
        "meta_eccentricity": 0.0001779,
        "meta_inclination": 0.025,
        "meta_ra_of_asc_node": 285.7731,
        "meta_arg_of_pericenter": 1.9109,
        "meta_mean_anomaly": 245.9993,
        "meta_ephemeris_type": 0,
        "meta_classification_type": "U",
        "meta_norad_cat_id": 37834,
        "meta_element_set_no": 999,
        "meta_rev_at_epoch": 5205,
        "meta_bstar": 0,
        "meta_mean_motion_dot": 7.4e-07,
        "meta_mean_motion_ddot": 0,
        "tle_line1": "1 37834U 11056A   25357.72548838  .00000074  00000+0  00000+0 0  9994",
        "tle_line2": "2 37834   0.0250 285.7731 0001779   1.9109 245.9993  1.00271479 52055"
      },
      "geometry": {
        "type": "Point",
        "coordinates": [
          -28.682715986587862,
          0.0029168111480680184
        ]
      }
    },
    {
      "type": "Feature",
      "properties": {
        "norad_id": 38098,
        "name": "INTELSAT 22 (IS-22)",
        "group": "intelsat",
        "lat": -0.009602212562353024,
        "lon": -136.6293446189336,
        "alt_km": 35783.97185122259,
        "timestamp": "2025-12-24T03:53:29.310184+00:00",
        "meta_object_name": "INTELSAT 22 (IS-22)",
        "meta_object_id": "2012-011A",
        "meta_epoch": "2025-12-23T19:13:39.531072",
        "meta_mean_motion": 1.00270426,
        "meta_eccentricity": 0.0001925,
        "meta_inclination": 0.0267,
        "meta_ra_of_asc_node": 41.6369,
        "meta_arg_of_pericenter": 254.1158,
        "meta_mean_anomaly": 157.334,
        "meta_ephemeris_type": 0,
        "meta_classification_type": "U",
        "meta_norad_cat_id": 38098,
        "meta_element_set_no": 999,
        "meta_rev_at_epoch": 543,
        "meta_bstar": 0,
        "meta_mean_motion_dot": 0,
        "meta_mean_motion_ddot": 0,
        "tle_line1": "1 38098U 12011A   25357.80115198  .00000000  00000+0  00000+0 0  9996",
        "tle_line2": "2 38098   0.0267  41.6369 0001925 254.1158 157.3340  1.00270426  5434"
      },
      "geometry": {
        "type": "Point",
        "coordinates": [
          -136.6293446189336,
          -0.009602212562353024
        ]
      }
    },
    {
      "type": "Feature",
      "properties": {
        "norad_id": 38356,
        "name": "INTELSAT 19 (IS-19)",
        "group": "intelsat",
        "lat": -0.012408011466099126,
        "lon": -42.66362857243731,
        "alt_km": 35777.85186141662,
        "timestamp": "2025-12-24T03:53:29.310196+00:00",
        "meta_object_name": "INTELSAT 19 (IS-19)",
        "meta_object_id": "2012-030A",
        "meta_epoch": "2025-12-23T17:20:42.576864",
        "meta_mean_motion": 1.00272132,
        "meta_eccentricity": 0.0002882,
        "meta_inclination": 0.0154,
        "meta_ra_of_asc_node": 320.5305,
        "meta_arg_of_pericenter": 308.4829,
        "meta_mean_anomaly": 249.6763,
        "meta_ephemeris_type": 0,
        "meta_classification_type": "U",
        "meta_norad_cat_id": 38356,
        "meta_element_set_no": 999,
        "meta_rev_at_epoch": 4869,
        "meta_bstar": 0,
        "meta_mean_motion_dot": -3.5e-07,
        "meta_mean_motion_ddot": 0,
        "tle_line1": "1 38356U 12030A   25357.72271501 -.00000035  00000+0  00000+0 0  9995",
        "tle_line2": "2 38356   0.0154 320.5305 0002882 308.4829 249.6763  1.00272132 48691"
      },
      "geometry": {
        "type": "Point",
        "coordinates": [
          -42.66362857243731,
          -0.012408011466099126
        ]
      }
    },
    {
      "type": "Feature",
      "properties": {
        "norad_id": 38740,
        "name": "INTELSAT 20 (IS-20)",
        "group": "intelsat",
        "lat": -0.0015166878205006922,
        "lon": -140.1825882439534,
        "alt_km": 35775.7955744291,
        "timestamp": "2025-12-24T03:53:29.310209+00:00",
        "meta_object_name": "INTELSAT 20 (IS-20)",
        "meta_object_id": "2012-043A",
        "meta_epoch": "2025-12-23T03:11:13.549344",
        "meta_mean_motion": 1.0027156,
        "meta_eccentricity": 0.00030742,
        "meta_inclination": 0.0106,
        "meta_ra_of_asc_node": 57.5703,
        "meta_arg_of_pericenter": 125.3187,
        "meta_mean_anomaly": 25.3339,
        "meta_ephemeris_type": 0,
        "meta_classification_type": "U",
        "meta_norad_cat_id": 38740,
        "meta_element_set_no": 999,
        "meta_rev_at_epoch": 4898,
        "meta_bstar": 0,
        "meta_mean_motion_dot": -3e-08,
        "meta_mean_motion_ddot": 0,
        "tle_line1": "1 38740U 12043A   25357.13279571 -.00000003  00000+0  00000+0 0  9991",
        "tle_line2": "2 38740   0.0106  57.5703 0003074 125.3187  25.3339  1.00271560 48985"
      },
      "geometry": {
        "type": "Point",
        "coordinates": [
          -140.1825882439534,
          -0.0015166878205006922
        ]
      }
    },
    {
      "type": "Feature",
      "properties": {
        "norad_id": 38749,
        "name": "INTELSAT 21 (IS-21)",
        "group": "intelsat",
        "lat": 0.020819031723797926,
        "lon": 93.29419472873103,
        "alt_km": 35793.28504053312,
        "timestamp": "2025-12-24T03:53:29.310221+00:00",
        "meta_object_name": "INTELSAT 21 (IS-21)",
        "meta_object_id": "2012-045A",
        "meta_epoch": "2025-12-23T11:08:42.768096",
        "meta_mean_motion": 1.00268456,
        "meta_eccentricity": 0.0001579,
        "meta_inclination": 0.0167,
        "meta_ra_of_asc_node": 301.665,
        "meta_arg_of_pericenter": 309.4209,
        "meta_mean_anomaly": 310.3485,
        "meta_ephemeris_type": 0,
        "meta_classification_type": "U",
        "meta_norad_cat_id": 38749,
        "meta_element_set_no": 999,
        "meta_rev_at_epoch": 4876,
        "meta_bstar": 0,
        "meta_mean_motion_dot": -2.64e-06,
        "meta_mean_motion_ddot": 0,
        "tle_line1": "1 38749U 12045A   25357.46438389 -.00000264  00000+0  00000+0 0  9991",
        "tle_line2": "2 38749   0.0167 301.6650 0001579 309.4209 310.3485  1.00268456 48768"
      },
      "geometry": {
        "type": "Point",
        "coordinates": [
          93.29419472873103,
          0.020819031723797926
        ]
      }
    }
  ]
}